start=new Date('2022-04-04T00:00:00.000Z').valueOf();
sats=[{"SEMIMAJOR_AXIS":"6738.118","REV_AT_EPOCH":"369","SITE":"AFETR","ECCENTRICITY":"0.00012590","BSTAR":"-0.00646900000000","ARG_OF_PERICENTER":"113.2548","CLASSIFICATION_TYPE":"U","OBJECT_NAME":"STARLINK-3644","PERIOD":"91.742","MEAN_ANOMALY":"49.2610","MEAN_MOTION_DDOT":"0.0000000000000","COUNTRY_CODE":"US","TLE_LINE1":"1 51987U 22025AH  22093.91667824 -.00717295  00000-0 -64690-2 0  9990","MEAN_MOTION_DOT":"-0.00717295","OBJECT_ID":"2022-025AH","ELEMENT_SET_NO":"999","DECAY_DATE":null,"PERIAPSIS":"359.134","MEAN_ELEMENT_THEORY":"SGP4","MEAN_MOTION":"15.69621257","TLE_LINE2":"2 51987  53.2175  14.2661 0001259 113.2548  49.2610 15.69621257  3690","LAUNCH_DATE":"2022-03-09","INCLINATION":"53.2175","EPOCH":"2022-04-03T22:00:00.999936","RCS_SIZE":"LARGE","TIME_SYSTEM":"UTC","GP_ID":"200382075","RA_OF_ASC_NODE":"14.2661","REF_FRAME":"TEME","APOAPSIS":"360.831","NORAD_CAT_ID":"51987","EPHEMERIS_TYPE":"0","CENTER_NAME":"EARTH","OBJECT_TYPE":"PAYLOAD","FILE":"3386965"},{"OBJECT_NAME":"STARLINK-3640","PERIOD":"91.705","MEAN_ANOMALY":"64.2961","MEAN_MOTION_DDOT":"0.0000000000000","COUNTRY_CODE":"US","ARG_OF_PERICENTER":"106.3263","CLASSIFICATION_TYPE":"U","ECCENTRICITY":"0.00012030","BSTAR":"-0.00629980000000","SEMIMAJOR_AXIS":"6736.289","REV_AT_EPOCH":"369","SITE":"AFETR","CENTER_NAME":"EARTH","OBJECT_TYPE":"PAYLOAD","FILE":"3386965","RCS_SIZE":"LARGE","TIME_SYSTEM":"UTC","REF_FRAME":"TEME","GP_ID":"200382688","RA_OF_ASC_NODE":"14.2642","NORAD_CAT_ID":"51988","APOAPSIS":"358.965","EPHEMERIS_TYPE":"0","DECAY_DATE":null,"ELEMENT_SET_NO":"999","MEAN_ELEMENT_THEORY":"SGP4","PERIAPSIS":"357.344","MEAN_MOTION":"15.70260346","TLE_LINE2":"2 51988  53.2176  14.2642 0001203 106.3263  64.2961 15.70260346  3693","LAUNCH_DATE":"2022-03-09","INCLINATION":"53.2176","EPOCH":"2022-04-03T22:00:00.999936","TLE_LINE1":"1 51988U 22025AJ  22093.91667824 -.00717457  00000-0 -62998-2 0  9990","MEAN_MOTION_DOT":"-0.00717457","OBJECT_ID":"2022-025AJ"},{"CLASSIFICATION_TYPE":"U","ARG_OF_PERICENTER":"84.4350","MEAN_ANOMALY":"79.7789","PERIOD":"91.734","OBJECT_NAME":"STARLINK-3642","COUNTRY_CODE":"US","MEAN_MOTION_DDOT":"0.0000000000000","SEMIMAJOR_AXIS":"6737.752","SITE":"AFETR","REV_AT_EPOCH":"369","ECCENTRICITY":"0.00011800","BSTAR":"-0.00643340000000","RCS_SIZE":"LARGE","GP_ID":"200382293","RA_OF_ASC_NODE":"14.2659","REF_FRAME":"TEME","TIME_SYSTEM":"UTC","EPHEMERIS_TYPE":"0","NORAD_CAT_ID":"51989","APOAPSIS":"360.412","CENTER_NAME":"EARTH","OBJECT_TYPE":"PAYLOAD","FILE":"3386965","TLE_LINE1":"1 51989U 22025AK  22093.91667824 -.00717159  00000-0 -64334-2 0  9996","OBJECT_ID":"2022-025AK","MEAN_MOTION_DOT":"-0.00717159","ELEMENT_SET_NO":"999","DECAY_DATE":null,"MEAN_ELEMENT_THEORY":"SGP4","PERIAPSIS":"358.822","MEAN_MOTION":"15.69748986","EPOCH":"2022-04-03T22:00:00.999936","TLE_LINE2":"2 51989  53.2175  14.2659 0001180  84.4350  79.7789 15.69748986  3696","LAUNCH_DATE":"2022-03-09","INCLINATION":"53.2175"},{"FILE":"3386965","CENTER_NAME":"EARTH","OBJECT_TYPE":"PAYLOAD","EPHEMERIS_TYPE":"0","APOAPSIS":"350.940","NORAD_CAT_ID":"51990","REF_FRAME":"TEME","GP_ID":"200382177","RA_OF_ASC_NODE":"14.2635","TIME_SYSTEM":"UTC","RCS_SIZE":"LARGE","EPOCH":"2022-04-03T22:00:00.999936","TLE_LINE2":"2 51990  53.2178  14.2635 0001260 112.7849  69.4387 15.73083436  3699","INCLINATION":"53.2178","LAUNCH_DATE":"2022-03-09","PERIAPSIS":"349.245","MEAN_MOTION":"15.73083436","MEAN_ELEMENT_THEORY":"SGP4","ELEMENT_SET_NO":"999","DECAY_DATE":null,"OBJECT_ID":"2022-025AL","MEAN_MOTION_DOT":"0.00156787","TLE_LINE1":"1 51990U 22025AL  22093.91667824  .00156787  00000-0  11063-2 0  9991","COUNTRY_CODE":"US","MEAN_MOTION_DDOT":"0.0000000000000","MEAN_ANOMALY":"69.4387","PERIOD":"91.540","OBJECT_NAME":"STARLINK-3657","CLASSIFICATION_TYPE":"U","ARG_OF_PERICENTER":"112.7849","BSTAR":"0.00110630000000","ECCENTRICITY":"0.00012600","REV_AT_EPOCH":"369","SITE":"AFETR","SEMIMAJOR_AXIS":"6728.228"},{"PERIOD":"91.719","MEAN_ANOMALY":"80.8479","OBJECT_NAME":"STARLINK-3652","COUNTRY_CODE":"US","MEAN_MOTION_DDOT":"0.0000000000000","CLASSIFICATION_TYPE":"U","ARG_OF_PERICENTER":"86.6470","ECCENTRICITY":"0.00011680","BSTAR":"-0.00636560000000","SEMIMAJOR_AXIS":"6737.021","REV_AT_EPOCH":"369","SITE":"AFETR","OBJECT_TYPE":"PAYLOAD","CENTER_NAME":"EARTH","FILE":"3386965","GP_ID":"200382396","RA_OF_ASC_NODE":"14.2651","REF_FRAME":"TEME","TIME_SYSTEM":"UTC","RCS_SIZE":"LARGE","EPHEMERIS_TYPE":"0","APOAPSIS":"359.673","NORAD_CAT_ID":"51991","ELEMENT_SET_NO":"999","DECAY_DATE":null,"EPOCH":"2022-04-03T22:00:00.999936","TLE_LINE2":"2 51991  53.2176  14.2651 0001168  86.6470  80.8479 15.70004597  3699","LAUNCH_DATE":"2022-03-09","INCLINATION":"53.2176","PERIAPSIS":"358.099","MEAN_ELEMENT_THEORY":"SGP4","MEAN_MOTION":"15.70004597","TLE_LINE1":"1 51991U 22025AM  22093.91667824 -.00717226  00000-0 -63656-2 0  9990","OBJECT_ID":"2022-025AM","MEAN_MOTION_DOT":"-0.00717226"},{"OBJECT_NAME":"STARLINK-3643","MEAN_ANOMALY":"55.7268","PERIOD":"91.537","MEAN_MOTION_DDOT":"0.0000000000000","COUNTRY_CODE":"US","ARG_OF_PERICENTER":"128.4196","CLASSIFICATION_TYPE":"U","ECCENTRICITY":"0.00011580","BSTAR":"0.00036448000000","SEMIMAJOR_AXIS":"6728.098","REV_AT_EPOCH":"369","SITE":"AFETR","OBJECT_TYPE":"PAYLOAD","CENTER_NAME":"EARTH","FILE":"3386965","RCS_SIZE":"LARGE","TIME_SYSTEM":"UTC","REF_FRAME":"TEME","GP_ID":"200382602","RA_OF_ASC_NODE":"14.2594","APOAPSIS":"350.742","NORAD_CAT_ID":"51992","EPHEMERIS_TYPE":"0","DECAY_DATE":null,"ELEMENT_SET_NO":"999","PERIAPSIS":"349.184","MEAN_MOTION":"15.73128734","MEAN_ELEMENT_THEORY":"SGP4","LAUNCH_DATE":"2022-03-09","TLE_LINE2":"2 51992  53.2176  14.2594 0001158 128.4196  55.7268 15.73128734  3695","INCLINATION":"53.2176","EPOCH":"2022-04-03T22:00:00.999936","TLE_LINE1":"1 51992U 22025AN  22093.91667824  .00050685  00000-0  36448-3 0  9998","MEAN_MOTION_DOT":"0.00050685","OBJECT_ID":"2022-025AN"},{"COUNTRY_CODE":"US","MEAN_MOTION_DDOT":"0.0000000000000","PERIOD":"91.697","MEAN_ANOMALY":"85.6860","OBJECT_NAME":"STARLINK-3648","CLASSIFICATION_TYPE":"U","ARG_OF_PERICENTER":"86.4425","BSTAR":"-0.00626480000000","ECCENTRICITY":"0.00011880","REV_AT_EPOCH":"369","SITE":"AFETR","SEMIMAJOR_AXIS":"6735.924","FILE":"3386965","CENTER_NAME":"EARTH","OBJECT_TYPE":"PAYLOAD","EPHEMERIS_TYPE":"0","NORAD_CAT_ID":"51993","APOAPSIS":"358.589","RCS_SIZE":"LARGE","GP_ID":"200381974","REF_FRAME":"TEME","RA_OF_ASC_NODE":"14.2632","TIME_SYSTEM":"UTC","MEAN_ELEMENT_THEORY":"SGP4","PERIAPSIS":"356.989","MEAN_MOTION":"15.70388089","EPOCH":"2022-04-03T22:00:00.999936","LAUNCH_DATE":"2022-03-09","TLE_LINE2":"2 51993  53.2176  14.2632 0001188  86.4425  85.6860 15.70388089  3698","INCLINATION":"53.2176","DECAY_DATE":null,"ELEMENT_SET_NO":"999","OBJECT_ID":"2022-025AP","MEAN_MOTION_DOT":"-0.00717321","TLE_LINE1":"1 51993U 22025AP  22093.91667824 -.00717321  00000-0 -62648-2 0  9998"},{"EPOCH":"2022-04-03T22:00:00.999936","INCLINATION":"53.2178","TLE_LINE2":"2 51994  53.2178  14.2588 0001120 120.0338  64.7268 15.73119410  3698","LAUNCH_DATE":"2022-03-09","MEAN_ELEMENT_THEORY":"SGP4","PERIAPSIS":"349.236","MEAN_MOTION":"15.73119410","DECAY_DATE":null,"ELEMENT_SET_NO":"999","OBJECT_ID":"2022-025AQ","MEAN_MOTION_DOT":"0.00044454","TLE_LINE1":"1 51994U 22025AQ  22093.91667824  .00044454  00000-0  32058-3 0  9990","FILE":"3386965","CENTER_NAME":"EARTH","OBJECT_TYPE":"PAYLOAD","EPHEMERIS_TYPE":"0","NORAD_CAT_ID":"51994","APOAPSIS":"350.743","GP_ID":"200382499","REF_FRAME":"TEME","RA_OF_ASC_NODE":"14.2588","TIME_SYSTEM":"UTC","RCS_SIZE":"LARGE","BSTAR":"0.00032058000000","ECCENTRICITY":"0.00011200","SITE":"AFETR","REV_AT_EPOCH":"369","SEMIMAJOR_AXIS":"6728.125","COUNTRY_CODE":"US","MEAN_MOTION_DDOT":"0.0000000000000","MEAN_ANOMALY":"64.7268","PERIOD":"91.538","OBJECT_NAME":"STARLINK-3647","CLASSIFICATION_TYPE":"U","ARG_OF_PERICENTER":"120.0338"},{"RCS_SIZE":"LARGE","RA_OF_ASC_NODE":"14.2621","GP_ID":"200382076","REF_FRAME":"TEME","TIME_SYSTEM":"UTC","EPHEMERIS_TYPE":"0","NORAD_CAT_ID":"51995","APOAPSIS":"350.839","CENTER_NAME":"EARTH","OBJECT_TYPE":"PAYLOAD","FILE":"3386965","TLE_LINE1":"1 51995U 22025AR  22093.91667824  .00046730  00000-0  33638-3 0  9995","OBJECT_ID":"2022-025AR","MEAN_MOTION_DOT":"0.00046730","DECAY_DATE":null,"ELEMENT_SET_NO":"999","PERIAPSIS":"349.024","MEAN_MOTION":"15.73140018","MEAN_ELEMENT_THEORY":"SGP4","EPOCH":"2022-04-03T22:00:00.999936","TLE_LINE2":"2 51995  53.2186  14.2621 0001349 113.2724  69.6012 15.73140018  3691","INCLINATION":"53.2186","LAUNCH_DATE":"2022-03-09","CLASSIFICATION_TYPE":"U","ARG_OF_PERICENTER":"113.2724","MEAN_ANOMALY":"69.6012","PERIOD":"91.537","OBJECT_NAME":"STARLINK-3636","COUNTRY_CODE":"US","MEAN_MOTION_DDOT":"0.0000000000000","SEMIMAJOR_AXIS":"6728.066","REV_AT_EPOCH":"369","SITE":"AFETR","ECCENTRICITY":"0.00013490","BSTAR":"0.00033638000000"},{"CENTER_NAME":"EARTH","OBJECT_TYPE":"PAYLOAD","FILE":"3386965","RCS_SIZE":"LARGE","TIME_SYSTEM":"UTC","REF_FRAME":"TEME","GP_ID":"200382689","RA_OF_ASC_NODE":"14.2571","NORAD_CAT_ID":"51996","APOAPSIS":"350.806","EPHEMERIS_TYPE":"0","ELEMENT_SET_NO":"999","DECAY_DATE":null,"MEAN_MOTION":"15.73156108","PERIAPSIS":"348.965","MEAN_ELEMENT_THEORY":"SGP4","TLE_LINE2":"2 51996  53.2180  14.2571 0001368 105.6063  79.7947 15.73156108  3698","INCLINATION":"53.2180","LAUNCH_DATE":"2022-03-09","EPOCH":"2022-04-03T22:00:00.999936","TLE_LINE1":"1 51996U 22025AS  22093.91667824 -.00027674  00000-0 -19377-3 0  9998","MEAN_MOTION_DOT":"-0.00027674","OBJECT_ID":"2022-025AS","OBJECT_NAME":"STARLINK-3538","MEAN_ANOMALY":"79.7947","PERIOD":"91.536","MEAN_MOTION_DDOT":"0.0000000000000","COUNTRY_CODE":"US","ARG_OF_PERICENTER":"105.6063","CLASSIFICATION_TYPE":"U","ECCENTRICITY":"0.00013680","BSTAR":"-0.00019377000000","SEMIMAJOR_AXIS":"6728.020","REV_AT_EPOCH":"369","SITE":"AFETR"}];
